NORAD_CAT_ID,OBJECT_NAME,OBJECT_TYPE,EPOCH,MEAN_MOTION,ECCENTRICITY,INCLINATION,RA_OF_ASC_NODE,ARG_OF_PERICENTER,MEAN_ANOMALY,BSTAR,MEAN_MOTION_DOT,MEAN_MOTION_DDOT,TLE_LINE0,TLE_LINE1,TLE_LINE2,SEMIMAJOR_AXIS,PERIOD,APOGEE,PERIGEE,DECAYED
53828.0,STARLINK-4760,PAYLOAD,2022-12-14 21:36:25,15.08844012,0.0002029,53.2157,204.7833,56.3743,303.7442,-2.1618e-05,-6.32e-06,0.0,0 STARLINK-4760,1 53828U 22114L   22348.90029253 -.00000632  00000-0 -21618-4 0  9990,2 53828  53.2157 204.7833 0002029  56.3743 303.7442 15.08844012 14572,6917.868,95.437,541.137,538.3290000000002,0.0
53828.0,STARLINK-4760,PAYLOAD,2022-12-15 07:08:43,15.08850364,0.0001886,53.2167,202.9995,51.82100000000001,308.2952,-8.3634e-06,-4.21e-06,0.0,0 STARLINK-4760,1 53828U 22114L   22349.29772654 -.00000421  00000-0 -83634-5 0  9996,2 53828  53.2167 202.9995 0001886  51.8210 308.2952 15.08850364 14631,6917.849,95.437,541.018,538.409,0.0
53828.0,STARLINK-4760,PAYLOAD,2022-12-15 19:51:49,15.08837718,0.0001753,53.2161,200.6215,52.5385,307.5767,-5.256600000000001e-05,-1.125e-05,0.0,0 STARLINK-4760,1 53828U 22114L   22349.82765528 -.00001125  00000-0 -52566-4 0  9998,2 53828  53.2161 200.6215 0001753  52.5385 307.5767 15.08837718 14712,6917.887,95.438,540.965,538.54,0.0
53828.0,STARLINK-4760,PAYLOAD,2022-12-16 00:37:58,15.08838488,0.0001858,53.2164,199.7284,49.4001,310.7153,-4.0324e-05,-9.3e-06,0.0,0 STARLINK-4760,1 53828U 22114L   22350.02637466 -.00000930  00000-0 -40324-4 0  9993,2 53828  53.2164 199.7284 0001858  49.4001 310.7153 15.08838488 14209,6917.885,95.438,541.035,538.465,0.0
53828.0,STARLINK-4760,PAYLOAD,2022-12-16 13:21:04,15.08826643,0.000188,53.216,197.3499,52.2752,307.841,-6.220100000000001e-05,-1.278e-05,0.0,0 STARLINK-4760,1 53828U 22114L   22350.55630502 -.00001278  00000-0 -62201-4 0  9999,2 53828  53.2160 197.3499 0001880  52.2752 307.8410 15.08826643 14288,6917.920999999999,95.438,541.087,538.486,0.0
53828.0,STARLINK-4760,PAYLOAD,2022-12-16 19:42:37,15.08824864,0.0001858,53.2164,196.1605,53.0331,307.0831,-6.2177e-05,-1.277e-05,0.0,0 STARLINK-4760,1 53828U 22114L   22350.82126807 -.00001277  00000-0 -62177-4 0  9998,2 53828  53.2164 196.1605 0001858  53.0331 307.0831 15.08824864 14861,6917.927,95.439,541.077,538.506,0.0
53828.0,STARLINK-4760,PAYLOAD,2022-12-17 13:11:51,15.08844289,0.0001968,53.2163,192.8893,52.4666,307.6505,-0.00019875,-3.45e-05,0.0,0 STARLINK-4760,1 53828U 22114L   22351.54990416 -.00003450  00000-0 -19875-3 0  9994,2 53828  53.2163 192.8893 0001968  52.4666 307.6505 15.08844289 14977,6917.8669999999975,95.437,541.094,538.371,0.0
53828.0,STARLINK-4760,PAYLOAD,2022-12-17 17:58:01,15.08830292,0.0001876,53.2163,191.9973,52.8487,307.2677,3.3703e-05,2.48e-06,0.0,0 STARLINK-4760,1 53828U 22114L   22351.74862789  .00000248  00000-0  33703-4 0  9994,2 53828  53.2163 191.9973 0001876  52.8487 307.2677 15.08830292 14468,6917.91,95.438,541.073,538.477,0.0
53828.0,STARLINK-4760,PAYLOAD,2022-12-17 19:33:24,15.08830583,0.000188,53.2163,191.7,52.8175,307.2988,2.7203e-05,1.45e-06,0.0,0 STARLINK-4760,1 53828U 22114L   22351.81486845  .00000145  00000-0  27203-4 0  9991,2 53828  53.2163 191.7000 0001880  52.8175 307.2988 15.08830583 15016,6917.909000000002,95.438,541.075,538.474,0.0
53828.0,STARLINK-4760,PAYLOAD,2022-12-18 13:02:39,15.08833611,0.0001868,53.2166,188.4293,52.1384,307.9777,7.9984e-05,9.85e-06,0.0,0 STARLINK-4760,1 53828U 22114L   22352.54350900  .00000985  00000-0  79984-4 0  9999,2 53828  53.2166 188.4293 0001868  52.1384 307.9777 15.08833611 15127,6917.9,95.438,541.057,538.4730000000002,0.0
53828.0,STARLINK-4760,PAYLOAD,2022-12-18 19:24:11,15.08832413,0.0001871,53.217,187.24,51.0046,309.1113,0.00010317,1.354e-05,0.0,0 STARLINK-4760,1 53828U 22114L   22352.80847074  .00001354  00000-0  10317-3 0  9996,2 53828  53.2170 187.2400 0001871  51.0046 309.1113 15.08832413 15167,6917.904,95.438,541.063,538.474,0.0
53828.0,STARLINK-4760,PAYLOAD,2022-12-19 06:31:53,15.08837797,0.0001916,53.2173,185.1584,52.1701,307.9464,0.00012097,1.638e-05,0.0,0 STARLINK-4760,1 53828U 22114L   22353.27214862  .00001638  00000-0  12097-3 0  9993,2 53828  53.2173 185.1584 0001916  52.1701 307.9464 15.08837797 14692,6917.887,95.438,541.078,538.427,0.0
53828.0,STARLINK-4760,PAYLOAD,2022-12-19 12:53:26,15.08840826,0.0001904,53.2174,183.9688,52.4187,307.6978,0.00013075,1.793e-05,0.0,0 STARLINK-4760,1 53828U 22114L   22353.53710652  .00001793  00000-0  13075-3 0  9999,2 53828  53.2174 183.9688 0001904  52.4187 307.6978 15.08840826 15271,6917.878000000002,95.438,541.06,538.4259999999998,0.0
53828.0,STARLINK-4760,PAYLOAD,2022-12-19 19:14:58,15.08844362,0.0001931,53.2174,182.7798,52.1825,307.9342,0.0001243,1.691e-05,0.0,0 STARLINK-4760,1 53828U 22114L   22353.80206389  .00001691  00000-0  12430-3 0  9997,2 53828  53.2174 182.7798 0001931  52.1825 307.9342 15.08844362 15318,6917.8669999999975,95.437,541.068,538.396,0.0
53828.0,STARLINK-4760,PAYLOAD,2022-12-20 12:44:13,15.0883923,0.0001994,53.2172,179.5087,54.3807,305.7371,1.1213e-05,-1.1e-06,0.0,0 STARLINK-4760,1 53828U 22114L   22354.53070960 -.00000110  00000-0  11213-4 0  9997,2 53828  53.2172 179.5087 0001994  54.3807 305.7371 15.08839230 14881,6917.8830000000025,95.438,541.127,538.368,0.0
53828.0,STARLINK-4760,PAYLOAD,2022-12-20 22:16:31,15.08841094,0.0001922,53.2178,177.7238,56.1774,303.9401,5.0493e-06,-2.08e-06,0.0,0 STARLINK-4760,1 53828U 22114L   22354.92814755 -.00000208  00000-0  50493-5 0  9990,2 53828  53.2178 177.7238 0001922  56.1774 303.9401 15.08841094 15481,6917.877,95.437,541.072,538.4119999999998,0.0
53828.0,STARLINK-4760,PAYLOAD,2022-12-21 18:56:31,15.08848989,0.0001948,53.2179,173.8582,57.3374,302.7806,2.4995e-05,1.1e-06,0.0,0 STARLINK-4760,1 53828U 22114L   22355.78925880  .00000110  00000-0  24995-4 0  9995,2 53828  53.2179 173.8582 0001948  57.3374 302.7806 15.08848989 15079,6917.853,95.437,541.066,538.37,0.0
53828.0,STARLINK-4760,PAYLOAD,2022-12-22 12:25:46,15.08840196,0.0001912,53.218,170.5878,57.0904,303.0272,4.6513e-05,4.52e-06,0.0,0 STARLINK-4760,1 53828U 22114L   22356.51789945  .00000452  00000-0  46513-4 0  9996,2 53828  53.2180 170.5878 0001912  57.0904 303.0272 15.08840196 15185,6917.88,95.438,541.067,538.422,0.0
53828.0,STARLINK-4760,PAYLOAD,2022-12-22 18:47:19,15.08833844,0.0001902,53.2181,169.3982,56.8548,303.2627,-2.9664e-06,-3.35e-06,0.0,0 STARLINK-4760,1 53828U 22114L   22356.78286519 -.00000335  00000-0 -29664-5 0  9995,2 53828  53.2181 169.3982 0001902  56.8548 303.2627 15.08833844 15760,6917.899,95.438,541.08,538.448,0.0
53828.0,STARLINK-4760,PAYLOAD,2022-12-23 04:19:38,15.08838926,0.0001894,53.2181,167.6141,55.362,304.755,-4.7251e-06,-3.63e-06,0.0,0 STARLINK-4760,1 53828U 22114L   22357.18030243 -.00000363  00000-0 -47251-5 0  9994,2 53828  53.2181 167.6141 0001894  55.3620 304.7550 15.08838926 15827,6917.884,95.438,541.059,538.438,0.0
53828.0,STARLINK-4760,PAYLOAD,2022-12-23 20:13:29,15.08845455,0.0001872,53.2185,164.6408,56.44,303.677,-6.0304e-06,-3.84e-06,0.0,0 STARLINK-4760,1 53828U 22114L   22357.84269758 -.00000384  00000-0 -60304-5 0  9999,2 53828  53.2185 164.6408 0001872  56.4400 303.6770 15.08845455 15926,6917.864000000001,95.437,541.024,538.434,0.0
53828.0,STARLINK-4760,PAYLOAD,2022-12-23 21:48:52,15.08845827,0.0001872,53.2186,164.3435,56.1851,303.9319,-3.6357e-06,-3.46e-06,0.0,0 STARLINK-4760,1 53828U 22114L   22357.90893702 -.00000346  00000-0 -36357-5 0  9997,2 53828  53.2186 164.3435 0001872  56.1851 303.9319 15.08845827 15397,6917.863,95.437,541.023,538.433,0.0
53828.0,STARLINK-4760,PAYLOAD,2022-12-24 04:10:24,15.08848435,0.0001872,53.2185,163.1541,56.0962,304.0208,8.6254e-06,-1.51e-06,0.0,0 STARLINK-4760,1 53828U 22114L   22358.17389382 -.00000151  00000-0  86254-5 0  9995,2 53828  53.2185 163.1541 0001872  56.0962 304.0208 15.08848435 15974,6917.855,95.437,541.015,538.425,0.0
53828.0,STARLINK-4760,PAYLOAD,2022-12-24 18:28:53,15.08834268,0.0001879,53.2188,160.4778,55.4546,304.6623,3.174e-05,2.17e-06,0.0,0 STARLINK-4760,1 53828U 22114L   22358.77006102  .00000217  00000-0  31740-4 0  9998,2 53828  53.2188 160.4778 0001879  55.4546 304.6623 15.08834268 15524,6917.898,95.438,541.063,538.4630000000002,0.0
53828.0,STARLINK-4760,PAYLOAD,2022-12-25 10:22:44,15.08838179,0.0001884,53.2187,157.504,55.7127,304.4044,3.1554e-05,2.14e-06,0.0,0 STARLINK-4760,1 53828U 22114L   22359.43246000  .00000214  00000-0  31554-4 0  9995,2 53828  53.2187 157.5040 0001884  55.7127 304.4044 15.08838179 16167,6917.886,95.438,541.054,538.448,0.0
53828.0,STARLINK-4760,PAYLOAD,2022-12-25 16:44:16,15.08841579,0.0001901,53.2186,156.3148,56.1532,303.9641,4.3317e-05,4.01e-06,0.0,0 STARLINK-4760,1 53828U 22114L   22359.69741716  .00000401  00000-0  43317-4 0  9995,2 53828  53.2186 156.3148 0001901  56.1532 303.9641 15.08841579 15666,6917.876,95.437,541.056,538.425,0.0
53828.0,STARLINK-4760,PAYLOAD,2022-12-26 10:13:31,15.08843742,0.0002063,53.218,153.0438,60.4437,299.6761,-4.6955e-06,-3.63e-06,0.0,0 STARLINK-4760,1 53828U 22114L   22360.42605638 -.00000363  00000-0 -46955-5 0  9991,2 53828  53.2180 153.0438 0002063  60.4437 299.6761 15.08843742 16319,6917.869000000002,95.437,541.161,538.307,0.0
53828.0,STARLINK-4760,PAYLOAD,2022-12-26 19:45:50,15.08835034,0.0001939,53.2182,151.2597,59.6147,300.5037,1.9873e-05,2.8e-07,0.0,0 STARLINK-4760,1 53828U 22114L   22360.82350114  .00000028  00000-0  19873-4 0  9995,2 53828  53.2182 151.2597 0001939  59.6147 300.5037 15.08835034 15835,6917.896,95.438,541.102,538.419,0.0
53828.0,STARLINK-4760,PAYLOAD,2022-12-27 10:04:17,15.08847978,0.0001814,53.2185,148.5829,58.4905,301.6264,9.9544e-05,1.297e-05,0.0,0 STARLINK-4760,1 53828U 22114L   22361.41964942  .00001297  00000-0  99544-4 0  9993,2 53828  53.2185 148.5829 0001814  58.4905 301.6264 15.08847978 15920,6917.856,95.437,540.976,538.466,0.0
